NORAD_CAT_ID,OBJECT_NAME,OBJECT_TYPE,EPOCH,MEAN_MOTION,ECCENTRICITY,INCLINATION,RA_OF_ASC_NODE,ARG_OF_PERICENTER,MEAN_ANOMALY,BSTAR,MEAN_MOTION_DOT,MEAN_MOTION_DDOT,TLE_LINE0,TLE_LINE1,TLE_LINE2,SEMIMAJOR_AXIS,PERIOD,APOGEE,PERIGEE,DECAYED
52341.0,STARLINK-3843,PAYLOAD,2022-12-16 00:38:41,15.08845168,0.0003425,53.2158,104.8393,49.8925,310.2367,0.0001066,1.408e-05,0.0,0 STARLINK-3843,1 52341U 22045L   22350.02686820  .00001408  00000-0  10660-3 0  9991,2 52341  53.2158 104.8393 0003425  49.8925 310.2367 15.08845168 37558,6917.865,95.437,542.099,537.36,0.0
52341.0,STARLINK-3843,PAYLOAD,2022-12-16 13:21:46,15.08844096,0.0003322,53.217,102.4605,50.0187,310.1096,4.2062e-05,3.81e-06,0.0,0 STARLINK-3843,1 52341U 22045L   22350.55679027  .00000381  00000-0  42062-4 0  9991,2 52341  53.2170 102.4605 0003322  50.0187 310.1096 15.08844096 37638,6917.868,95.437,542.031,537.435,0.0
52341.0,STARLINK-3843,PAYLOAD,2022-12-16 16:32:32,15.0884349,0.0003304,53.2169,101.8659,49.5757,310.5523,3.6198e-05,2.87e-06,0.0,0 STARLINK-3843,1 52341U 22045L   22350.68927042  .00000287  00000-0  36198-4 0  9996,2 52341  53.2169 101.8659 0003304  49.5757 310.5523 15.08843490 37652,6917.87,95.437,542.02,537.4490000000002,0.0
52341.0,STARLINK-3843,PAYLOAD,2022-12-17 06:51:01,15.08833863,0.0003202,53.2171,99.1899,49.7241,310.4031,-1.2248e-06,-3.08e-06,0.0,0 STARLINK-3843,1 52341U 22045L   22351.28543816 -.00000308  00000-0 -12248-5 0  9993,2 52341  53.2171  99.1899 0003202  49.7241 310.4031 15.08833863 37743,6917.899,95.438,541.979,537.549,0.0
52341.0,STARLINK-3843,PAYLOAD,2022-12-17 11:37:11,15.0883383,0.0003332,53.2176,98.2976,50.8065,309.3223,-4.129600000000001e-05,-9.46e-06,0.0,0 STARLINK-3843,1 52341U 22045L   22351.48416025 -.00000946  00000-0 -41296-4 0  9998,2 52341  53.2176  98.2976 0003332  50.8065 309.3223 15.08833830 37772,6917.899,95.438,542.069,537.4590000000002,0.0
52341.0,STARLINK-3843,PAYLOAD,2022-12-17 14:47:57,15.08834704,0.000332,53.2171,97.703,46.9433,313.1837,-3.4953e-05,-8.45e-06,0.0,0 STARLINK-3843,1 52341U 22045L   22351.61663963 -.00000845  00000-0 -34953-4 0  9998,2 52341  53.2171  97.7030 0003320  46.9433 313.1837 15.08834704 37791,6917.897,95.438,542.058,537.465,0.0
52341.0,STARLINK-3843,PAYLOAD,2022-12-18 13:03:21,15.08841703,0.000327,53.2156,93.5388,48.7175,311.4098,2.3737e-05,8.9e-07,0.0,0 STARLINK-3843,1 52341U 22045L   22352.54399542  .00000089  00000-0  23737-4 0  9996,2 52341  53.2156  93.5388 0003270  48.7175 311.4098 15.08841703 37934,6917.875,95.437,542.002,537.4780000000002,0.0
52341.0,STARLINK-3843,PAYLOAD,2022-12-18 14:38:44,15.08837419,0.0003077,53.218,93.2426,45.487,314.6373,1.7244e-05,-1.4e-07,0.0,0 STARLINK-3843,1 52341U 22045L   22352.61023876 -.00000014  00000-0  17244-4 0  9993,2 52341  53.2180  93.2426 0003077  45.4870 314.6373 15.08837419 37943,6917.888000000001,95.438,541.882,537.625,0.0
52341.0,STARLINK-3843,PAYLOAD,2022-12-19 00:11:04,15.08828315,0.000317,53.2177,91.4579,45.0489,315.076,1.9386e-05,2e-07,0.0,0 STARLINK-3843,1 52341U 22045L   22353.00768619  .00000020  00000-0  19386-4 0  9993,2 52341  53.2177  91.4579 0003170  45.0489 315.0760 15.08828315 38002,6917.916,95.438,541.974,537.5880000000002,0.0
52341.0,STARLINK-3843,PAYLOAD,2022-12-19 06:32:36,15.08833327,0.0003134,53.2185,90.2686,41.5125,318.6105,5.8703e-05,6.46e-06,0.0,0 STARLINK-3843,1 52341U 22045L   22353.27264354  .00000646  00000-0  58703-4 0  9999,2 52341  53.2185  90.2686 0003134  41.5125 318.6105 15.08833327 38040,6917.901,95.438,541.934,537.5980000000002,0.0
52341.0,STARLINK-3843,PAYLOAD,2022-12-19 17:40:17,15.08842215,0.0003467,53.2166,88.19,34.7491,325.3727,0.0001811,2.595e-05,0.0,0 STARLINK-3843,1 52341U 22045L   22353.73631429  .00002595  00000-0  18110-3 0  9993,2 52341  53.2166  88.1900 0003467  34.7491 325.3727 15.08842215 38112,6917.874,95.437,542.137,537.34,0.0
52341.0,STARLINK-3843,PAYLOAD,2022-12-20 00:01:49,15.0884976,0.0003172,53.2164,87.0001,41.2924,318.8307,0.00018446,2.649e-05,0.0,0 STARLINK-3843,1 52341U 22045L   22354.00126826  .00002649  00000-0  18446-3 0  9996,2 52341  53.2164  87.0001 0003172  41.2924 318.8307 15.08849760 38154,6917.851,95.437,541.91,537.521,0.0
52341.0,STARLINK-3843,PAYLOAD,2022-12-20 11:09:31,15.08850431,0.0003204,53.2173,84.9183,42.504,317.62,0.00013912,1.927e-05,0.0,0 STARLINK-3843,1 52341U 22045L   22354.46494777  .00001927  00000-0  13912-3 0  9990,2 52341  53.2173  84.9183 0003204  42.5040 317.6200 15.08850431 38224,6917.849,95.437,541.93,537.497,0.0
52341.0,STARLINK-3843,PAYLOAD,2022-12-21 12:35:42,15.08836142,0.0002872,53.2173,80.1574,41.407,318.714,-5.9581e-05,-1.237e-05,0.0,0 STARLINK-3843,1 52341U 22045L   22355.52480087 -.00001237  00000-0 -59581-4 0  9996,2 52341  53.2173  80.1574 0002872  41.4070 318.7140 15.08836142 38382,6917.892,95.438,541.744,537.77,0.0
52341.0,STARLINK-3843,PAYLOAD,2022-12-22 12:26:29,15.08839164,0.0003018,53.218,75.6997,41.0184,319.1035,-3.6686e-05,-8.73e-06,0.0,0 STARLINK-3843,1 52341U 22045L   22356.51840147 -.00000873  00000-0 -36686-4 0  9999,2 52341  53.2180  75.6997 0003018  41.0184 319.1035 15.08839164 38535,6917.8830000000025,95.438,541.836,537.66,0.0
52341.0,STARLINK-3843,PAYLOAD,2022-12-22 17:12:39,15.08837594,0.0003001,53.2165,74.8057,37.9264,322.1939,-5.7646e-05,-1.206e-05,0.0,0 STARLINK-3843,1 52341U 22045L   22356.71712394 -.00001206  00000-0 -57646-4 0  9993,2 52341  53.2165  74.8057 0003001  37.9264 322.1939 15.08837594 38566,6917.888000000001,95.438,541.8290000000002,537.677,0.0
52341.0,STARLINK-3843,PAYLOAD,2022-12-23 04:20:22,15.08824752,0.0002936,53.2165,72.72399999999998,37.4201,322.6996,9.2297e-05,1.18e-05,0.0,0 STARLINK-3843,1 52341U 22045L   22357.18081090  .00001180  00000-0  92297-4 0  9997,2 52341  53.2165  72.7240 0002936  37.4201 322.6996 15.08824752 38637,6917.927,95.439,541.823,537.761,0.0
52341.0,STARLINK-3843,PAYLOAD,2022-12-23 09:06:32,15.08819997,0.0002923,53.2173,71.8311,37.0975,323.0219,4.3452e-05,4.03e-06,0.0,0 STARLINK-3843,1 52341U 22045L   22357.37953707  .00000403  00000-0  43452-4 0  9997,2 52341  53.2173  71.8311 0002923  37.0975 323.0219 15.08819997 38666,6917.941999999999,95.439,541.8290000000002,537.784,0.0
52341.0,STARLINK-3843,PAYLOAD,2022-12-23 15:28:04,15.08821539,0.0002901,53.2175,70.6418,37.3292,322.7901,4.89e-05,4.89e-06,0.0,0 STARLINK-3843,1 52341U 22045L   22357.64449909  .00000489  00000-0  48900-4 0  9998,2 52341  53.2175  70.6418 0002901  37.3292 322.7901 15.08821539 38708,6917.937,95.439,541.809,537.795,0.0
52341.0,STARLINK-3843,PAYLOAD,2022-12-24 16:54:14,15.08839442,0.000291,53.2173,65.8839,36.6988,323.4203,0.00010492,1.382e-05,0.0,0 STARLINK-3843,1 52341U 22045L   22358.70433265  .00001382  00000-0  10492-3 0  9991,2 52341  53.2173  65.8839 0002910  36.6988 323.4203 15.08839442 38865,6917.882,95.438,541.76,537.734,0.0
52341.0,STARLINK-3843,PAYLOAD,2022-12-24 21:40:23,15.08843359,0.0003001,53.2175,64.9917,35.6052,324.514,0.00012007,1.623e-05,0.0,0 STARLINK-3843,1 52341U 22045L   22358.90304994  .00001623  00000-0  12007-3 0  9991,2 52341  53.2175  64.9917 0003001  35.6052 324.5140 15.08843359 38894,6917.87,95.437,541.811,537.659,0.0
52341.0,STARLINK-3843,PAYLOAD,2022-12-25 21:31:11,15.08832374,0.0002887,53.2168,60.5317,34.3582,325.7596,5.8167e-05,6.37e-06,0.0,0 STARLINK-3843,1 52341U 22045L   22359.89665856  .00000637  00000-0  58167-4 0  9999,2 52341  53.2168  60.5317 0002887  34.3582 325.7596 15.08832374 39048,6917.904,95.438,541.766,537.771,0.0
52341.0,STARLINK-3843,PAYLOAD,2022-12-26 03:52:43,15.08839773,0.0002832,53.2172,59.3413,34.0129,326.1044,1.1621e-05,-1.04e-06,0.0,0 STARLINK-3843,1 52341U 22045L   22360.16161536 -.00000104  00000-0  11621-4 0  9991,2 52341  53.2172  59.3413 0002832  34.0129 326.1044 15.08839773 39087,6917.880999999999,95.438,541.705,537.7869999999998,0.0
52341.0,STARLINK-3843,PAYLOAD,2022-12-26 10:14:16,15.08843189,0.000285,53.2176,58.1516,34.7908,325.327,-8.8199e-05,-1.692e-05,0.0,0 STARLINK-3843,1 52341U 22045L   22360.42657786 -.00001692  00000-0 -88199-4 0  9995,2 52341  53.2176  58.1516 0002850  34.7908 325.3270 15.08843189 39127,6917.871,95.437,541.707,537.764,0.0
52341.0,STARLINK-3843,PAYLOAD,2022-12-27 03:43:29,15.08850518,0.0002599,53.218,54.8799,32.512,327.6032,6.4692e-05,7.42e-06,0.0,0 STARLINK-3843,1 52341U 22045L   22361.15520627  .00000742  00000-0  64692-4 0  9994,2 52341  53.2180  54.8799 0002599  32.5120 327.6032 15.08850518 39237,6917.848000000001,95.437,541.511,537.915,0.0
52341.0,STARLINK-3843,PAYLOAD,2022-12-27 13:15:47,15.08861037,0.0002708,53.2178,53.0962,35.1455,324.9716,0.00017584,2.513e-05,0.0,0 STARLINK-3843,1 52341U 22045L   22361.55263400  .00002513  00000-0  17584-3 0  9996,2 52341  53.2178  53.0962 0002708  35.1455 324.9716 15.08861037 39292,6917.816,95.436,541.554,537.808,0.0
52341.0,STARLINK-3843,PAYLOAD,2022-12-28 13:06:35,15.08840791,0.0002863999999999,53.2176,48.6361,39.9809,320.1393,0.00010436,1.373e-05,0.0,0 STARLINK-3843,1 52341U 22045L   22362.54624476  .00001373  00000-0  10436-3 0  9992,2 52341  53.2176  48.6361 0002864  39.9809 320.1393 15.08840791 39441,6917.878000000002,95.438,541.724,537.762,0.0
52341.0,STARLINK-3843,PAYLOAD,2022-12-29 03:25:05,15.08830086,0.0003154999999999,53.217,45.9639,23.315,336.7985,-0.00018049,-3.16e-05,0.0,0 STARLINK-3843,1 52341U 22045L   22363.14242054 -.00003160  00000-0 -18049-3 0  9993,2 52341  53.2170  45.9639 0003155  23.3150 336.7985 15.08830086 39539,6917.911,95.438,541.9580000000002,537.5930000000002,0.0
52341.0,STARLINK-3843,PAYLOAD,2022-12-29 09:46:37,15.08828675,0.0002928,53.2182,44.7743,30.7078,329.4085,-0.00015936,-2.823e-05,0.0,0 STARLINK-3843,1 52341U 22045L   22363.40738114 -.00002823  00000-0 -15936-3 0  9996,2 52341  53.2182  44.7743 0002928  30.7078 329.4085 15.08828675 39578,6917.915,95.438,541.806,537.754,0.0
